STARLINK-37162          
1 68262U 26055A   26107.26965444  .00270415  00000+0  13257-2 0  9996
2 68262  53.1571 143.9487 0000692  56.1805 303.9284 15.80961400  5789
STARLINK-37156          
1 68263U 26055B   26107.26890536  .00333253  00000+0  16189-2 0  9993
2 68263  53.1572 143.9431 0001119 144.2625 215.8473 15.80989685  5780
STARLINK-37163          
1 68264U 26055C   26107.26740494  .00307040  00000+0  14970-2 0  9992
2 68264  53.1565 143.9321 0001114 137.2379 222.8731 15.80981613  5782
STARLINK-37133          
1 68265U 26055D   26106.82562374  .00184172  00000+0  91514-3 0  9992
2 68265  53.1564 146.1576 0001520  61.6764 298.4412 15.80914093  5714
STARLINK-37042          
1 68266U 26055E   26107.26665460  .00318120  00000+0  15482-2 0  9993
2 68266  53.1560 143.9281 0000781 135.3053 224.8033 15.80990899  5784
STARLINK-37103          
1 68267U 26055F   26107.13946541  .00190547  00000+0  94522-3 0  9996
2 68267  53.1564 144.5556 0001160  92.3387 267.7768 15.80931882  5761
STARLINK-36999          
1 68268U 26055G   26106.82262025  .00260377  00000+0  12786-2 0  9990
2 68268  53.1573 146.1360 0001676  73.7822 286.3385 15.80952690  5719
STARLINK-36962          
1 68269U 26055H   26107.13796592  .00334719  00000+0  16275-2 0  9996
2 68269  53.1566 144.5465 0001353 104.8475 255.2697 15.80965905  5761
STARLINK-37028          
1 68270U 26055J   26107.26290326  .00116048  00000+0  58293-3 0  9996
2 68270  53.1572 143.9022 0001066  51.1825 308.9293 15.80899018  5787
STARLINK-37029          
1 68271U 26055K   26107.26365660  .00326537  00000+0  15882-2 0  9993
2 68271  53.1568 143.9074 0000956 142.1722 217.9369 15.80981629  5787
STARLINK-36974          
1 68272U 26055L   26107.20709255 -.00858678  00000+0 -74677-2 0  9995
2 68272  53.1586 144.2691 0000818  98.7186 261.3925 15.70900141  5773
STARLINK-37019          
1 68273U 26055M   26107.13496458  .00393151  00000+0  18852-2 0  9997
2 68273  53.1568 144.5257 0002317 126.9895 233.1340 15.81113347  5765
STARLINK-37129          
1 68274U 26055N   26107.26065283  .00198843  00000+0  98568-3 0  9994
2 68274  53.1568 143.8862 0001319  25.0206 335.0880 15.80922893  5782
STARLINK-37123          
1 68275U 26055P   26107.13346532  .00299467  00000+0  14630-2 0  9991
2 68275  53.1566 144.5145 0001601 100.7791 259.3413 15.80958387  5762
