[
  {
    "OBJECT_NAME": "STARLINK-37162",
    "OBJECT_ID": "2026-055A",
    "EPOCH": "2026-04-17T06:28:18.143616",
    "MEAN_MOTION": 15.809614,
    "ECCENTRICITY": 6.923e-05,
    "INCLINATION": 53.1571,
    "RA_OF_ASC_NODE": 143.9487,
    "ARG_OF_PERICENTER": 56.1805,
    "MEAN_ANOMALY": 303.9284,
    "EPHEMERIS_TYPE": 0,
    "CLASSIFICATION_TYPE": "U",
    "NORAD_CAT_ID": 68262,
    "ELEMENT_SET_NO": 999,
    "REV_AT_EPOCH": 578,
    "BSTAR": 0.0013256953,
    "MEAN_MOTION_DOT": 0.00270415,
    "MEAN_MOTION_DDOT": 0
  },
  {
    "OBJECT_NAME": "STARLINK-37156",
    "OBJECT_ID": "2026-055B",
    "EPOCH": "2026-04-17T06:27:13.423104",
    "MEAN_MOTION": 15.80989685,
    "ECCENTRICITY": 0.00011199,
    "INCLINATION": 53.1572,
    "RA_OF_ASC_NODE": 143.9431,
    "ARG_OF_PERICENTER": 144.2625,
    "MEAN_ANOMALY": 215.8473,
    "EPHEMERIS_TYPE": 0,
    "CLASSIFICATION_TYPE": "U",
    "NORAD_CAT_ID": 68263,
    "ELEMENT_SET_NO": 999,
    "REV_AT_EPOCH": 578,
    "BSTAR": 0.0016189098,
    "MEAN_MOTION_DOT": 0.00333253,
    "MEAN_MOTION_DDOT": 0
  },
  {
    "OBJECT_NAME": "STARLINK-37163",
    "OBJECT_ID": "2026-055C",
    "EPOCH": "2026-04-17T06:25:03.786816",
    "MEAN_MOTION": 15.80981613,
    "ECCENTRICITY": 0.0001114,
    "INCLINATION": 53.1565,
    "RA_OF_ASC_NODE": 143.9321,
    "ARG_OF_PERICENTER": 137.2379,
    "MEAN_ANOMALY": 222.8731,
    "EPHEMERIS_TYPE": 0,
    "CLASSIFICATION_TYPE": "U",
    "NORAD_CAT_ID": 68264,
    "ELEMENT_SET_NO": 999,
    "REV_AT_EPOCH": 578,
    "BSTAR": 0.0014969829,
    "MEAN_MOTION_DOT": 0.0030704,
    "MEAN_MOTION_DDOT": 0
  },
  {
    "OBJECT_NAME": "STARLINK-37133",
    "OBJECT_ID": "2026-055D",
    "EPOCH": "2026-04-16T19:48:53.891136",
    "MEAN_MOTION": 15.80914093,
    "ECCENTRICITY": 0.00015206,
    "INCLINATION": 53.1564,
    "RA_OF_ASC_NODE": 146.1576,
    "ARG_OF_PERICENTER": 61.6764,
    "MEAN_ANOMALY": 298.4412,
    "EPHEMERIS_TYPE": 0,
    "CLASSIFICATION_TYPE": "U",
    "NORAD_CAT_ID": 68265,
    "ELEMENT_SET_NO": 999,
    "REV_AT_EPOCH": 571,
    "BSTAR": 0.00091513661,
    "MEAN_MOTION_DOT": 0.00184172,
    "MEAN_MOTION_DDOT": 0
  },
  {
    "OBJECT_NAME": "STARLINK-37042",
    "OBJECT_ID": "2026-055E",
    "EPOCH": "2026-04-17T06:23:58.957440",
    "MEAN_MOTION": 15.80990899,
    "ECCENTRICITY": 7.818e-05,
    "INCLINATION": 53.156,
    "RA_OF_ASC_NODE": 143.9281,
    "ARG_OF_PERICENTER": 135.3053,
    "MEAN_ANOMALY": 224.8033,
    "EPHEMERIS_TYPE": 0,
    "CLASSIFICATION_TYPE": "U",
    "NORAD_CAT_ID": 68266,
    "ELEMENT_SET_NO": 999,
    "REV_AT_EPOCH": 578,
    "BSTAR": 0.0015481773,
    "MEAN_MOTION_DOT": 0.0031812,
    "MEAN_MOTION_DDOT": 0
  },
  {
    "OBJECT_NAME": "STARLINK-37103",
    "OBJECT_ID": "2026-055F",
    "EPOCH": "2026-04-17T03:20:49.811424",
    "MEAN_MOTION": 15.80931882,
    "ECCENTRICITY": 0.00011603,
    "INCLINATION": 53.1564,
    "RA_OF_ASC_NODE": 144.5556,
    "ARG_OF_PERICENTER": 92.3387,
    "MEAN_ANOMALY": 267.7768,
    "EPHEMERIS_TYPE": 0,
    "CLASSIFICATION_TYPE": "U",
    "NORAD_CAT_ID": 68267,
    "ELEMENT_SET_NO": 999,
    "REV_AT_EPOCH": 576,
    "BSTAR": 0.00094522292,
    "MEAN_MOTION_DOT": 0.00190547,
    "MEAN_MOTION_DDOT": 0
  },
  {
    "OBJECT_NAME": "STARLINK-36999",
    "OBJECT_ID": "2026-055G",
    "EPOCH": "2026-04-16T19:44:34.389600",
    "MEAN_MOTION": 15.8095269,
    "ECCENTRICITY": 0.00016763,
    "INCLINATION": 53.1573,
    "RA_OF_ASC_NODE": 146.136,
    "ARG_OF_PERICENTER": 73.7822,
    "MEAN_ANOMALY": 286.3385,
    "EPHEMERIS_TYPE": 0,
    "CLASSIFICATION_TYPE": "U",
    "NORAD_CAT_ID": 68268,
    "ELEMENT_SET_NO": 999,
    "REV_AT_EPOCH": 571,
    "BSTAR": 0.0012786487,
    "MEAN_MOTION_DOT": 0.00260377,
    "MEAN_MOTION_DDOT": 0
  },
  {
    "OBJECT_NAME": "STARLINK-36962",
    "OBJECT_ID": "2026-055H",
    "EPOCH": "2026-04-17T03:18:40.255488",
    "MEAN_MOTION": 15.80965905,
    "ECCENTRICITY": 0.00013531,
    "INCLINATION": 53.1566,
    "RA_OF_ASC_NODE": 144.5465,
    "ARG_OF_PERICENTER": 104.8475,
    "MEAN_ANOMALY": 255.2697,
    "EPHEMERIS_TYPE": 0,
    "CLASSIFICATION_TYPE": "U",
    "NORAD_CAT_ID": 68269,
    "ELEMENT_SET_NO": 999,
    "REV_AT_EPOCH": 576,
    "BSTAR": 0.0016275314,
    "MEAN_MOTION_DOT": 0.00334719,
    "MEAN_MOTION_DDOT": 0
  },
  {
    "OBJECT_NAME": "STARLINK-37028",
    "OBJECT_ID": "2026-055J",
    "EPOCH": "2026-04-17T06:18:34.841664",
    "MEAN_MOTION": 15.80899018,
    "ECCENTRICITY": 0.00010668,
    "INCLINATION": 53.1572,
    "RA_OF_ASC_NODE": 143.9022,
    "ARG_OF_PERICENTER": 51.1825,
    "MEAN_ANOMALY": 308.9293,
    "EPHEMERIS_TYPE": 0,
    "CLASSIFICATION_TYPE": "U",
    "NORAD_CAT_ID": 68270,
    "ELEMENT_SET_NO": 999,
    "REV_AT_EPOCH": 578,
    "BSTAR": 0.00058292526,
    "MEAN_MOTION_DOT": 0.00116048,
    "MEAN_MOTION_DDOT": 0
  },
  {
    "OBJECT_NAME": "STARLINK-37029",
    "OBJECT_ID": "2026-055K",
    "EPOCH": "2026-04-17T06:19:39.930240",
    "MEAN_MOTION": 15.80981629,
    "ECCENTRICITY": 9.565e-05,
    "INCLINATION": 53.1568,
    "RA_OF_ASC_NODE": 143.9074,
    "ARG_OF_PERICENTER": 142.1722,
    "MEAN_ANOMALY": 217.9369,
    "EPHEMERIS_TYPE": 0,
    "CLASSIFICATION_TYPE": "U",
    "NORAD_CAT_ID": 68271,
    "ELEMENT_SET_NO": 999,
    "REV_AT_EPOCH": 578,
    "BSTAR": 0.0015881773,
    "MEAN_MOTION_DOT": 0.00326537,
    "MEAN_MOTION_DDOT": 0
  },
  {
    "OBJECT_NAME": "STARLINK-36974",
    "OBJECT_ID": "2026-055L",
    "EPOCH": "2026-04-17T04:58:12.796320",
    "MEAN_MOTION": 15.70900141,
    "ECCENTRICITY": 8.18e-05,
    "INCLINATION": 53.1586,
    "RA_OF_ASC_NODE": 144.2691,
    "ARG_OF_PERICENTER": 98.7186,
    "MEAN_ANOMALY": 261.3925,
    "EPHEMERIS_TYPE": 0,
    "CLASSIFICATION_TYPE": "U",
    "NORAD_CAT_ID": 68272,
    "ELEMENT_SET_NO": 999,
    "REV_AT_EPOCH": 577,
    "BSTAR": -0.0074676663,
    "MEAN_MOTION_DOT": -0.00858678,
    "MEAN_MOTION_DDOT": 0
  },
  {
    "OBJECT_NAME": "STARLINK-37019",
    "OBJECT_ID": "2026-055M",
    "EPOCH": "2026-04-17T03:14:20.939712",
    "MEAN_MOTION": 15.81113347,
    "ECCENTRICITY": 0.00023179,
    "INCLINATION": 53.1568,
    "RA_OF_ASC_NODE": 144.5257,
    "ARG_OF_PERICENTER": 126.9895,
    "MEAN_ANOMALY": 233.134,
    "EPHEMERIS_TYPE": 0,
    "CLASSIFICATION_TYPE": "U",
    "NORAD_CAT_ID": 68273,
    "ELEMENT_SET_NO": 999,
    "REV_AT_EPOCH": 576,
    "BSTAR": 0.0018852088,
    "MEAN_MOTION_DOT": 0.00393151,
    "MEAN_MOTION_DDOT": 0
  },
  {
    "OBJECT_NAME": "STARLINK-37129",
    "OBJECT_ID": "2026-055N",
    "EPOCH": "2026-04-17T06:15:20.404512",
    "MEAN_MOTION": 15.80922893,
    "ECCENTRICITY": 0.0001319,
    "INCLINATION": 53.1568,
    "RA_OF_ASC_NODE": 143.8862,
    "ARG_OF_PERICENTER": 25.0206,
    "MEAN_ANOMALY": 335.088,
    "EPHEMERIS_TYPE": 0,
    "CLASSIFICATION_TYPE": "U",
    "NORAD_CAT_ID": 68274,
    "ELEMENT_SET_NO": 999,
    "REV_AT_EPOCH": 578,
    "BSTAR": 0.00098567768,
    "MEAN_MOTION_DOT": 0.00198843,
    "MEAN_MOTION_DDOT": 0
  },
  {
    "OBJECT_NAME": "STARLINK-37123",
    "OBJECT_ID": "2026-055P",
    "EPOCH": "2026-04-17T03:12:11.403648",
    "MEAN_MOTION": 15.80958387,
    "ECCENTRICITY": 0.00016014,
    "INCLINATION": 53.1566,
    "RA_OF_ASC_NODE": 144.5145,
    "ARG_OF_PERICENTER": 100.7791,
    "MEAN_ANOMALY": 259.3413,
    "EPHEMERIS_TYPE": 0,
    "CLASSIFICATION_TYPE": "U",
    "NORAD_CAT_ID": 68275,
    "ELEMENT_SET_NO": 999,
    "REV_AT_EPOCH": 576,
    "BSTAR": 0.0014630139,
    "MEAN_MOTION_DOT": 0.00299467,
    "MEAN_MOTION_DDOT": 0
  }
]